H1 CPF 01  gfz 2022 01 10 13  5102 terrasarx 
H2 0702601  6201 31698    2022 01 10 12 59 42 2022 01 15 00 00 42   120 1 1  0 0 0
H9
10 0 59592   2862.000000  0     618402.074  -1366467.984  -6729981.459
10 0 59592   2982.000000  0     393901.698  -2229968.590  -6512534.283
10 0 59592   3102.000000  0     147840.508  -3050715.069  -6181444.915
10 0 59592   3222.000000  0    -114644.307  -3814119.122  -5742418.887
10 0 59592   3342.000000  0    -387878.703  -4506650.918  -5203037.178
10 0 59592   3462.000000  0    -665767.638  -5116081.249  -4572637.030
10 0 59592   3582.000000  0    -941924.031  -5631704.190  -3862161.630
10 0 59592   3702.000000  0   -1209807.983  -6044534.875  -3083979.432
10 0 59592   3822.000000  0   -1462873.158  -6347477.462  -2251675.691
10 0 59592   3942.000000  0   -1694717.492  -6535460.046  -1379818.873
10 0 59592   4062.000000  0   -1899234.263  -6605531.767   -483704.489
10 0 59592   4182.000000  0   -2070759.804  -6556918.260    420918.047
10 0 59592   4302.000000  0   -2204214.366  -6391033.439   1318129.489
10 0 59592   4422.000000  0   -2295232.080  -6111447.055   2192129.723
10 0 59592   4542.000000  0   -2340276.389  -5723808.435   3027525.262
10 0 59592   4662.000000  0   -2336737.545  -5235728.216   3809608.210
10 0 59592   4782.000000  0   -2283010.071  -4656621.940   4524620.286
10 0 59592   4902.000000  0   -2178548.853  -3997520.571   5159997.034
10 0 59592   5022.000000  0   -2023903.032  -3270851.638   5704589.115
10 0 59592   5142.000000  0   -1820725.538  -2490195.544   6148854.628
10 0 59592   5262.000000  0   -1571758.613  -1670025.892   6485020.447
10 0 59592   5382.000000  0   -1280796.993   -825437.423   6707212.813
10 0 59592   5502.000000  0    -952629.837     28134.973   6811553.365
10 0 59592   5622.000000  0    -592962.248    875197.629   6796221.763
10 0 59592   5742.000000  0    -208316.052   1700478.654   6661486.338
10 0 59592   5862.000000  0     194088.434   2489203.033   6409699.723
10 0 59592   5982.000000  0     606467.372   3227356.935   6045259.911
10 0 59592   6102.000000  0    1020622.391   3901937.958   5574538.480
10 0 59592   6222.000000  0    1428101.870   4501187.946   5005774.970
10 0 59592   6342.000000  0    1820371.915   5014804.057   4348938.706
10 0 59592   6462.000000  0    2188993.743   5434122.843   3615558.520
10 0 59592   6582.000000  0    2525804.492   5752274.288   2818525.126
10 0 59592   6702.000000  0    2823095.903   5964305.519   1971863.922
10 0 59592   6822.000000  0    3073787.910   6067263.647   1090482.894
10 0 59592   6942.000000  0    3271590.603   6060238.090    189903.666
10 0 59592   7062.000000  0    3411151.909   5944362.592   -714019.411
10 0 59592   7182.000000  0    3488187.665   5722775.420  -1605386.902
10 0 59592   7302.000000  0    3499589.858   5400539.932  -2468541.530
10 0 59592   7422.000000  0    3443511.044   4984526.988  -3288350.108
10 0 59592   7542.000000  0    3319421.634   4483261.930  -4050472.943
10 0 59592   7662.000000  0    3128139.808   3906741.870  -4741613.915
10 0 59592   7782.000000  0    2871834.151   3266229.144  -5349748.891
10 0 59592   7902.000000  0    2553999.514   2574024.288  -5864327.815
10 0 59592   8022.000000  0    2179406.954   1843224.927  -6276447.953
10 0 59592   8142.000000  0    1754028.877   1087475.831  -6578996.233
10 0 59592   8262.000000  0    1284942.906    320715.655  -6766760.140
10 0 59592   8382.000000  0     780214.352   -443075.885  -6836509.410
10 0 59592   8502.000000  0     248758.151  -1190128.269  -6787045.092
10 0 59592   8622.000000  0    -299814.957  -1907121.705  -6619216.264
10 0 59592   8742.000000  0    -855367.221  -2581417.894  -6335908.036
10 0 59592   8862.000000  0   -1407416.952  -3201279.738  -5941998.142
10 0 59592   8982.000000  0   -1945331.289  -3756073.904  -5444280.978
10 0 59592   9102.000000  0   -2458527.067  -4236454.710  -4851362.356
10 0 59592   9222.000000  0   -2936677.840  -4634527.378  -4173522.644
10 0 59592   9342.000000  0   -3369921.760  -4943984.868  -3422548.034
10 0 59592   9462.000000  0   -3749065.716  -5160215.916  -2611533.706
10 0 59592   9582.000000  0   -4065782.354  -5280381.890  -1754660.455
10 0 59592   9702.000000  0   -4312794.563  -5303459.571   -866947.652
10 0 59592   9822.000000  0   -4484042.200  -5230248.219     36013.037
10 0 59592   9942.000000  0   -4574826.463  -5063340.032    938337.749
10 0 59592  10062.000000  0   -4581928.146  -4807053.880   1824138.773
10 0 59592  10182.000000  0   -4503695.529  -4467332.973   2677813.893
10 0 59592  10302.000000  0   -4340100.242  -4051610.262   3484329.296
10 0 59592  10422.000000  0   -4092760.320  -3568645.336   4229490.834
10 0 59592  10542.000000  0   -3764928.993  -3028336.179   4900198.332
10 0 59592  10662.000000  0   -3361450.116  -2441511.171   5484675.632
10 0 59592  10782.000000  0   -2888683.090  -1819708.474   5972674.469
10 0 59592  10902.000000  0   -2354398.287  -1174946.371   6355650.791
10 0 59592  11022.000000  0   -1767644.651   -519487.407   6626910.006
10 0 59592  11142.000000  0   -1138591.272    134397.011   6781716.719
10 0 59592  11262.000000  0    -478349.850    774654.707   6817370.620
10 0 59592  11382.000000  0     201221.208   1389673.972   6733251.154
10 0 59592  11502.000000  0     887729.298   1968493.926   6530827.959
10 0 59592  11622.000000  0    1568473.132   2500999.931   6213636.137
10 0 59592  11742.000000  0    2230676.669   2978100.320   5787218.261
10 0 59592  11862.000000  0    2861729.040   3391883.949   5259034.305
10 0 59592  11982.000000  0    3449427.556   3735755.615   4638337.277
10 0 59592  12102.000000  0    3982216.143   4004544.311   3936014.895
10 0 59592  12222.000000  0    4449416.269   4194585.522   3164405.353
10 0 59592  12342.000000  0    4841448.897   4303773.986   2337080.007
10 0 59592  12462.000000  0    5150034.085   4331583.428   1468602.481
10 0 59592  12582.000000  0    5368369.942   4279055.052    574267.763
10 0 59592  12702.000000  0    5491282.707   4148753.167   -330175.359
10 0 59592  12822.000000  0    5515343.599   3944689.412  -1228810.859
10 0 59592  12942.000000  0    5438950.999   3672217.687  -2105843.846
10 0 59592  13062.000000  0    5262375.441   3337902.210  -2945885.227
10 0 59592  13182.000000  0    4987767.056   2949363.566  -3734225.829
10 0 59592  13302.000000  0    4619126.266   2515107.057  -4457096.017
10 0 59592  13422.000000  0    4162237.103   2044335.380  -5101904.806
10 0 59592  13542.000000  0    3624567.337   1546752.503  -5657452.361
10 0 59592  13662.000000  0    3015138.223   1032364.025  -6114115.611
10 0 59592  13782.000000  0    2344366.120    511277.338  -6464004.423
10 0 59592  13902.000000  0    1623880.663     -6494.011  -6701085.676
10 0 59592  14022.000000  0     866324.015   -511218.522  -6821277.669
10 0 59592  14142.000000  0      85130.453   -993625.842  -6822513.542
10 0 59592  14262.000000  0    -705707.106  -1445072.260  -6704771.046
10 0 59592  14382.000000  0   -1491881.084  -1857691.141  -6470073.483
10 0 59592  14502.000000  0   -2259022.508  -2224527.754  -6122459.157
10 0 59592  14622.000000  0   -2992957.884  -2539655.092  -5667918.619
10 0 59592  14742.000000  0   -3679967.288  -2798270.242  -5114302.837
10 0 59592  14862.000000  0   -4307042.052  -2996770.285  -4471199.657
10 0 59592  14982.000000  0   -4862134.447  -3132804.439  -3749778.020
10 0 59592  15102.000000  0   -5334395.139  -3205301.684  -2962603.316
10 0 59592  15222.000000  0   -5714393.700  -3214473.128  -2123424.698
10 0 59592  15342.000000  0   -5994315.712  -3161788.073  -1246937.121
10 0 59592  15462.000000  0   -6168131.603  -3049924.245   -348522.857
10 0 59592  15582.000000  0   -6231732.390  -2882692.498    556023.147
10 0 59592  15702.000000  0   -6183028.886  -2664938.128   1450778.474
10 0 59592  15822.000000  0   -6022009.375  -2402420.446   2319983.801
10 0 59592  15942.000000  0   -5750753.916  -2101673.471   3148328.990
10 0 59592  16062.000000  0   -5373408.588  -1769852.745   3921230.228
10 0 59592  16182.000000  0   -4896115.631  -1414570.502   4625093.334
10 0 59592  16302.000000  0   -4326904.329  -1043724.513   5247553.295
10 0 59592  16422.000000  0   -3675548.275   -665326.040   5777689.622
10 0 59592  16542.000000  0   -2953389.732   -287328.836   6206215.609
10 0 59592  16662.000000  0   -2173133.938     82536.812   6525636.155
10 0 59592  16782.000000  0   -1348619.283    436919.653   6730371.813
10 0 59592  16902.000000  0    -494569.114    768991.255   6816850.190
10 0 59592  17022.000000  0     373671.609   1072576.258   6783563.937
10 0 59592  17142.000000  0    1240411.038   1342266.581   6631095.277
10 0 59592  17262.000000  0    2089893.115   1573518.123   6362106.382
10 0 59592  17382.000000  0    2906583.046   1762727.411   5981295.725
10 0 59592  17502.000000  0    3675452.667   1907287.948   5495321.816
10 0 59592  17622.000000  0    4382260.111   2005624.972   4912692.053
10 0 59592  17742.000000  0    5013817.646   2057209.000   4243620.653
10 0 59592  17862.000000  0    5558247.047   2062547.678   3499855.797
10 0 59592  17982.000000  0    6005212.612   2023153.674   2694472.770
10 0 59592  18102.000000  0    6346124.793   1941491.680   1841644.527
10 0 59592  18222.000000  0    6574315.080   1820904.572    956388.593
10 0 59592  18342.000000  0    6685171.675   1665519.644     54295.556
10 0 59592  18462.000000  0    6676235.324   1480139.303   -848753.914
10 0 59592  18582.000000  0    6547250.442   1270117.017  -1736877.899
10 0 59592  18702.000000  0    6300173.456   1041221.490  -2594479.305
10 0 59592  18822.000000  0    5939136.609    799494.002  -3406526.646
10 0 59592  18942.000000  0    5470367.871    551103.031  -4158820.805
10 0 59592  19062.000000  0    4902070.563    302198.792  -4838243.093
10 0 59592  19182.000000  0    4244266.729     58771.499  -5432978.626
10 0 59592  19302.000000  0    3508610.042   -173482.691  -5932713.309
99
